#cP2015  1 20  0  0  0.00000000      96 ORBIT IGb08 HLM  IGS
## 1828 172800.00000000   900.00000000 57042 0.0000000000000
+   31   G01G02G03G04G05G06G07G08G09G10G11G12G13G14G15G16G17
+        G18G19G20G21G22G23G24G25G27G28G29G30G31G32  0  0  0
+          0  0  0  0  0  0  0  0  0  0  0  0  0  0  0  0  0
+          0  0  0  0  0  0  0  0  0  0  0  0  0  0  0  0  0
+          0  0  0  0  0  0  0  0  0  0  0  0  0  0  0  0  0
++         2  2  2  2  2  2  2  3  2  2  2  2  2  2  2  2  2
++         2  2  2  2  2  2  2  2  2  2  2  3  2  2  0  0  0
++         0  0  0  0  0  0  0  0  0  0  0  0  0  0  0  0  0
++         0  0  0  0  0  0  0  0  0  0  0  0  0  0  0  0  0
++         0  0  0  0  0  0  0  0  0  0  0  0  0  0  0  0  0
%c G  cc GPS ccc cccc cccc cccc cccc ccccc ccccc ccccc ccccc
%c cc cc ccc ccc cccc cccc cccc cccc ccccc ccccc ccccc ccccc
%f  1.2500000  1.025000000  0.00000000000  0.000000000000000
%f  0.0000000  0.000000000  0.00000000000  0.000000000000000
%i    0    0    0    0      0      0      0      0         0
%i    0    0    0    0      0      0      0      0         0
/* FINAL ORBIT COMBINATION FROM WEIGHTED AVERAGE OF:        
/* cod emr esa gfz grg jpl mit ngs sio                      
/* REFERENCED TO IGS TIME (IGST) AND TO WEIGHTED MEAN POLE: 
/* PCV:IGS08_1822 OL/AL:FES2004  NONE     Y  ORB:CMB CLK:CMB
*  2015  1 20 12  0  0.00000000
PG01  20458.380918  13562.119612 -10407.925822     -9.976214  8  4  6 110       
PG02   2020.329592 -15769.268126  21636.675535    542.965683  4  4  4 109       
PG03  13195.048354  20060.818699  11308.967666    160.194599  6  5  5  87       
PG04  11440.720075  16570.489437 -17763.240852     -5.924419  7  6  5  67       
PG05  -1510.649687 -25535.145432   6746.401273   -290.360371  3  5  4  92       
PG06  17161.010806  -8461.541604  18405.513220     56.841331  3  6  3 100       
PG07  25785.105871   6938.868923  -1599.880401    433.150313  8  4  4 113       
PG08   -636.341711  15271.731355  21997.392434     17.194572  7  5  6  93       
PG09  19443.775243  -1213.329982  18049.658527    -60.890698  5  5  4  96       
PG10  11393.650517 -13320.559585  19453.318812   -159.603120  4  1  4 110       
PG11  15597.429308  13260.106693 -17516.381506   -552.135611  7  5  6  88       
PG12 -10584.147635 -22786.895115   8870.449282    262.796348  6  6  5 104       
PG13   7904.269996 -19833.779442 -16027.664068    -80.522928  6  6  7 129       
PG14 -21474.783975  15173.611711  -2921.219053     95.095887 10  7  5  88       
PG15  -6886.257928 -15066.215245 -20788.409372   -227.430544  9  5  7 146       
PG16     45.487717  25424.853112   6924.155718   -163.428098  5  7  5 122       
PG17  21529.503711 -14377.573084  -5090.578154   -151.056480  8  6  4 110       
PG18 -16432.080255  -2104.010464 -20339.717741    373.605268  7  3  8  96       
PG19    492.280016  17338.514500 -20153.787517   -497.366772  5  3  4  96       
PG20  17174.256990   6392.209911  19101.566980    280.686323  8  3  5  85       
PG21 -25864.385517  -2697.950773  -5675.808522   -407.600933  8  4  5  96       
PG22 -12257.146506  12334.424620 -19819.915809    309.359537  4  4  6 105       
PG23  13140.051946   8762.504311  21521.394370    -83.012973  4  5  3  92       
PG24 -18177.966418 -14474.618458 -13013.497614    -42.107093  8  5  6  99       
PG25 -15517.812979 -11680.046115  18108.042626      2.017102  7  6  7 101       
PG27  -8958.709858  21278.818492 -13062.669066     45.614387  5  5  6  99       
PG28  13168.099898  -6683.775910 -21443.434312    413.743922  8  6  6  99       
PG29 -17630.138346  -2521.423463  19721.461864    587.064929  9  3  6 108       
PG30  23714.001490   -225.104163 -12008.193883    -86.373398  9  7  7  66       
PG31 -15109.576032   9333.240422  20001.158443    325.085086  7  5  8  85       
PG32   4265.345572  26520.235758    -74.454512   -243.285873  4  5  5  95       
*  2015  1 20 12 15  0.00000000
PG01  19133.587220  13427.591166 -12818.302408     -9.975776  8  5  6 118       
PG02   4370.923456 -15230.844892  21632.898756    542.967705  5  4  4 105       
PG03  13285.307405  21231.478444   8778.776109    160.216270  6  6  5  87       
PG04   9407.549307  16234.116144 -19209.605751     -5.925125  7  6  5  63       
PG05   -971.687606 -24717.768621   9375.315669   -290.355497  3  4  5  95       
PG06  19076.960908  -7830.286683  16721.138884     56.851266  3  6  3 111       
PG07  25761.387005   7136.382480   1256.681015    433.153072  8  4  4 105       
PG08  -2942.825719  14357.080372  22371.138199     17.194676  7  6  7 100       
PG09  18047.108070    425.208871  19477.985649    -60.901271  5  5  5  96       
PG10  12145.250877 -11065.554214  20409.568905   -159.606126  4  1  5 110       
PG11  13614.138183  13638.988398 -18854.797825   -552.137828  7  5  5  89       
PG12 -10637.049384 -23659.614496   6144.236092    262.798763  6  5  4  99       
PG13   9293.706880 -20793.338621 -13917.271099    -80.526028  7  6  6 132       
PG14 -21244.932700  14643.818663  -5741.872391     95.092716 10  7  6 110       
PG15  -5255.577915 -16733.917748 -19940.510143   -227.432501  8  5  6 151       
PG16   -342.930829  24524.998596   9643.535040   -163.425122  4  6  5 106       
PG17  21125.861333 -13671.650691  -7849.997056   -151.058545  9  6  4 102       
PG18 -17024.545395  -4413.115054 -19512.679913    373.607439  8  4  8  81       
PG19  -1268.324023  18677.818054 -18830.029403   -497.368043  3  2  4 109       
PG20  17742.373867   8469.958108  17747.089958    280.689827  8  4  5  77       
PG21 -26343.914475  -3122.801672  -2955.305156   -407.605123  8  4  5 107       
PG22 -13044.456613  10094.093207 -20578.068646    309.363006  4  4  6 118       
PG23  11425.812685  10507.360557  21681.046824    -83.015220  4  5  4 108       
PG24 -16570.500604 -14297.176689 -15168.140711    -42.107984  8  5  6  94       
PG25 -15942.384893 -13612.723736  16322.204680      2.014807  7  6  7 101       
PG27 -10050.424783  22112.108665 -10653.586624     45.616738  4  6  6 106       
PG28  13731.845307  -4144.448509 -21729.934782    413.746131  8  6  6  94       
PG29 -15992.894369  -4155.066235  20815.413420    587.067042  9  3  5 108       
PG30  24810.674483    379.891004  -9537.867944    -86.373172 10  7  6 128       
PG31 -17170.968710   8658.767172  18611.085423    325.084404  7  6  8  89       
PG32   3985.638552  26406.646242  -2863.536072   -243.277717  4  5  4  95       
*  2015  1 20 12 30  0.00000000
PG01  17548.711131  13313.246292 -15010.512541     -9.975406  8  5  6 126       
PG02   6729.988034 -14812.499560  21267.389421    542.969734  5  4  3 102       
PG03  13338.415182  22117.333226   6097.139791    160.237866  6  6  5  88       
PG04   7218.820892  15974.380433 -20336.064270     -5.925538  7  6  5  82       
PG05   -296.419810 -23655.452446  11840.925481   -290.351164  4  4  5  91       
PG06  20819.707751  -7338.093075  14748.643991     56.861133  3  6  3 106       
PG07  25436.046446   7267.305540   4092.100379    433.156185  8  3  4  82       
PG08  -5324.109107  13570.028770  22367.825208     17.194445  7  7  7  88       
PG09  16644.155124   2242.248376  20571.018165    -60.911854  5  4  5 108       
PG10  13030.441280  -8767.145353  21000.044745   -159.608800  5  2  5 115       
PG11  11521.620649  14119.731782 -19882.968105   -552.140175  7  5  5 108       
PG12 -10649.047748 -24226.628335   3313.423774    262.801686  5  4  4 100       
PG13  10445.545868 -21656.329803 -11570.875071    -80.529214  8  6  6 120       
PG14 -20820.267658  13878.047018  -8462.259787     95.089676  9  7  6 110       
PG15  -3775.376605 -18389.645208 -18749.367212   -227.434387  8  4  6 150       
PG16   -862.636028  23357.800832  12193.053135   -163.422338  4  6  5 107       
PG17  20549.708637 -12719.169343 -10471.193049   -151.060257  9  6  4 113       
PG18 -17681.321687  -6580.561554 -18338.601724    373.610080  9  5  8  78       
PG19  -2837.932506  19994.255593 -17181.985322   -497.369270  2     5 100       
PG20  18339.356605  10360.421980  16084.629164    280.693647  9  5  5  95       
PG21 -26539.831608  -3463.722801   -184.618124   -407.609198  8  4  6 108       
PG22 -13954.311850   7831.088753 -20974.539597    309.366589  5  4  6 120       
PG23   9801.207988  12337.938427  21472.009489    -83.017552  5  4  5 103       
PG24 -14730.535508 -14163.351553 -17063.737008    -42.108521  8  5  6 104       
PG25 -16399.797721 -15311.679784  14255.732554      2.012480  7  6  7  94       
PG27 -10912.381285  22786.285735  -8060.375560     45.619119  4  6  6 119       
PG28  14435.720050  -1630.479338 -21619.624394    413.748493  8  6  6  97       
PG29 -14374.719249  -5949.093525  21551.859946    587.069284  8  3  5 113       
PG30  25658.484799    852.193534  -6903.819539    -86.372958 10  7  6  40       
PG31 -19095.603963   8137.668565  16907.908831    325.083576  8  6  7  77       
PG32   3623.044587  26008.791993  -5604.948504   -243.269857  5  6  5 109       
EOF
